HORYU-4                 
1 41340U 16012D   19331.86523938  .00000442  00000-0  26754-4 0  9991
2 41340  31.0038 181.8046 0014192 297.7008  62.2187 15.01366426207400
E-ST@R-II               
1 41459U 16025D   19332.23068170  .00002096  00000-0  10971-3 0  9990
2 41459  98.0998  66.9158 0166844 171.6908 188.7191 15.05851608197005
AAUSAT 4                
1 41460U 16025E   19331.99649084  .00004044  00000-0  20179-3 0  9999
2 41460  98.0991  68.3472 0157351 163.6075 197.0290 15.07921660197128
DIWATA-1                
1 41463U 98067HT  19332.14361397  .00041643  11803-4  13874-3 0  9991
2 41463  51.6266 118.4444 0000528 206.7135 324.2532 15.91106320205546
BEESAT-4                
1 41619U 16040W   19332.16280224  .00001461  00000-0  64064-4 0  9991
2 41619  97.3486  31.2137 0011687 164.3236 195.8365 15.23498236178595
CANX-7                  
1 41788U 16059F   19332.15192195  .00008343  00000-0  12172-2 0  9993
2 41788  98.2472  50.4037 0031311 210.4839 149.4584 14.75710410169952
RAVAN                   
1 41849U 16067B   19331.74378100  .00000343  00000-0  33910-4 0  9993
2 41849  97.9254  73.3389 0008349 196.2744 163.8210 14.98372460166260
CELTEE 1                
1 41850U 16067C   19331.75865099  .00000631  00000-0  60000-4 0  9994
2 41850  97.9215  71.6463 0008580 193.8272 166.2716 14.97081689166176
OPTICUBE 04             
1 41851U 16067D   19331.85670514 -.00000375  00000-0 -27379-4 0  9991
2 41851  97.9213  71.4672 0008255 196.9302 163.1645 14.96859529166174
AEROCUBE 8D             
1 41852U 16067E   19331.73412788 -.00000135  00000-0 -65147-5 0  9996
2 41852  97.9217  71.1698 0009207 199.4865 160.6005 14.96796374166130
AEROCUBE 8C             
1 41853U 16067F   19332.09519471  .00000824  00000-0  77355-4 0  9990
2 41853  97.9217  71.4577 0009656 196.8639 163.2262 14.96761935166182
PROMETHEUS 2-1          
1 41854U 16067G   19331.76970998  .00001052  00000-0  96609-4 0  9996
2 41854  97.9229  71.3396 0009873 196.8497 163.2397 14.97024323166146
PROMETHEUS 2-3          
1 41855U 16067H   19331.77141025  .00001010  00000-0  92982-4 0  9993
2 41855  97.9233  71.3640 0010018 197.3988 162.6891 14.97031926166147
INS-1B                  
1 41954U 17008G   19332.18799868  .00001333  00000-0  57445-4 0  9992
2 41954  97.3820  34.9589 0007606 298.4857  61.5614 15.24298096154553
BGUSAT                  
1 41999U 17008BD  19331.47259180  .00002179  00000-0  85749-4 0  9997
2 41999  97.3913  37.3462 0006697 315.6732  44.3970 15.26691682153974
DIDO-2                  
1 42000U 17008BE  19331.66178513  .00000954  00000-0  42128-4 0  9995
2 42000  97.3832  34.9900 0007355 323.6751  36.3986 15.24147437153879
PEASSS                  
1 42015U 17008BV  19332.17645415  .00001235  00000-0  52074-4 0  9992
2 42015  97.3846  36.7180 0005334 330.5438  29.5498 15.25178810154518
AL-FARABI 1             
1 42016U 17008BW  19332.16960786  .00001548  00000-0  63211-4 0  9995
2 42016  97.3864  37.4514 0005175 329.7051  30.3887 15.25896544154672
NAYIF-1 (EO-88)         
1 42017U 17008BX  19331.62881916  .00001614  00000-0  65703-4 0  9995
2 42017  97.3862  36.9284 0005233 332.0839  28.0117 15.25931487154615
ALTAIR PATHFINDER       
1 42711U 98067LS  19331.99042651  .00521291  15775-3  43887-3 0  9999
2 42711  51.6210 156.9583 0004917 263.3993  96.6463 16.13040237144904
NSIGHT                  
1 42726U 98067MF  19332.04170881  .00039070  00000-0  20775-3 0  9991
2 42726  51.6308 194.0651 0004493 116.0227 244.1237 15.80056052143408
UCLSAT                  
1 42765U 17036A   19331.63695632  .00001307  00000-0  58316-4 0  9996
2 42765  97.3311  26.0261 0012057  28.3138 331.8751 15.23067206135703
LITUANICASAT-2          
1 42768U 17036D   19331.79779026  .00001982  00000-0  86207-4 0  9995
2 42768  97.3354  25.9019 0015132  16.6556 343.5175 15.23323989134985
AALTO-1                 
1 42775U 17036L   19331.78518129  .00000772  00000-0  37225-4 0  9999
2 42775  97.3291  24.5304 0014331  18.4415 341.7338 15.21549989134854
URSA MAIOR              
1 42776U 17036M   19331.79672620  .00000874  00000-0  41561-4 0  9999
2 42776  97.3302  24.7449 0014134  18.4061 341.7684 15.21702570134860
COMPASS 2               
1 42777U 17036N   19331.81043509  .00001698  00000-0  74342-4 0  9999
2 42777  97.3349  26.3781 0012765  18.8090 341.3616 15.23319629134944
DIAMOND RED             
1 42783U 17036U   19331.61092522  .00001009  00000-0  46499-4 0  9991
2 42783  97.3311  25.4650 0012769  29.3516 330.8435 15.22464267134882
PEGASUS                 
1 42784U 17036V   19331.82017291  .00001148  00000-0  51981-4 0  9991
2 42784  97.3316  25.9713 0012610  28.0035 332.1877 15.22794221134937
DIAMOND GREEN           
1 42785U 17036W   19331.60977593  .00001017  00000-0  46858-4 0  9990
2 42785  97.3314  25.4926 0012688  29.9406 330.2554 15.22464512134954
DIAMOND BLUE            
1 42786U 17036X   19331.60893636  .00001020  00000-0  46973-4 0  9998
2 42786  97.3313  25.4887 0012537  30.3422 329.8537 15.22464406134954
NUDTSAT                 
1 42787U 17036Y   19331.97184406  .00001543  00000-0  66685-4 0  9999
2 42787  97.3355  27.0872 0012985  20.4924 339.6829 15.23900768134856
SUCHAI                  
1 42788U 17036Z   19331.58362182  .00001380  00000-0  61061-4 0  9998
2 42788  97.3322  26.1558 0012152  27.9828 332.2060 15.23263154134995
SKCUBE                  
1 42789U 17036AA  19331.80812646  .00001270  00000-0  56643-4 0  9997
2 42789  97.3317  26.2831 0012016  27.5143 332.6727 15.23140547134949
VZLUSAT-1               
1 42790U 17036AB  19331.82798680  .00001607  00000-0  69365-4 0  9991
2 42790  97.3336  26.9437 0011454  26.6247 333.5577 15.23893817134983
ROBUSTA-1B              
1 42792U 17036AD  19331.72061874  .00001281  00000-0  56819-4 0  9998
2 42792  97.3319  26.3886 0011626  28.6071 331.5802 15.23318935134955
CICERO 6                
1 42793U 17036AE  19331.82773845  .00000866  00000-0  39956-4 0  9999
2 42793  97.3299  26.1337 0010965  30.7952 329.3926 15.22812873135029
D-SAT                   
1 42794U 17036AF  19331.53023494  .00000348  00000-0  35763-4 0  9993
2 42794  97.5201   8.9416 0125436 322.6760  36.5792 14.91176042132459
CORVUS BC2              
1 42846U 17042X   19331.64317847  .00000369  00000-0  41670-4 0  9995
2 42846  97.5458 218.9988 0008361 229.6535 130.3955 14.92030503129161
CORVUS BC1              
1 42847U 17042Y   19331.78670564  .00000253  00000-0  30091-4 0  9996
2 42847  97.5460 219.2698 0008022 228.1470 131.9065 14.92131213129184
MIRATA                  
1 43015U 17073C   19331.70666620  .00001727  00000-0  13927-3 0  9993
2 43015  97.7202 246.6187 0254487 350.0781   9.5457 14.79266967109243
MAKERSAT 0              
1 43016U 17073D   19331.75112796  .00001277  00000-0  10441-3 0  9997
2 43016  97.7237 246.8643 0256849 350.5414   9.1009 14.78942521109237
ASTERIA                 
1 43020U 98067NH  19332.13796280  .00039832  00000-0  21637-3 0  9990
2 43020  51.6390 205.5588 0001129 105.7739 254.3387 15.79586698115444
DELLINGR (RBLE)         
1 43021U 98067NJ  19331.97729008  .00010338  00000-0  10482-3 0  9992
2 43021  51.6369 230.6578 0001849  38.8435 321.2693 15.65893966115096
AEROCUBE 7B (OCSD B)    
1 43042U 17071F   19331.82627018  .00003571  00000-0  91425-4 0  9991
2 43042  51.6382 339.7461 0004988  30.8549 329.2729 15.42157712111092
AEROCUBE 7C (OCSD C)    
1 43043U 17071G   19331.82659700  .00003572  00000-0  91510-4 0  9991
2 43043  51.6382 339.7631 0005241  34.5863 325.5463 15.42138168111060
CHEFSAT                 
1 43044U 17071H   19331.70297764  .00006997  00000-0  15192-3 0  9992
2 43044  51.6390 331.6166 0005225  34.9033 325.2296 15.45534015111165
ASGARDIA 1              
1 43049U 17071N   19331.50671871  .00003526  00000-0  90098-4 0  9994
2 43049  51.6392 340.6745 0002935  51.0910 309.0337 15.42255417111028
ISARA                   
1 43050U 17071P   19332.16173354  .00005641  00000-0  12677-3 0  9998
2 43050  51.6375 330.8604 0002909  50.4975 309.6269 15.44923697111205
PROPCUBE 2 (FAUNA)      
1 43052U 17071R   19331.73952531  .00002962  00000-0  76366-4 0  9993
2 43052  51.6388 338.4983 0002887  48.7711 311.3523 15.42600884111063
CORVUS BC3              
1 43118U 18004H   19331.43622738  .00000869  00000-0  39887-4 0  9994
2 43118  97.4698  38.1164 0011605  51.2166 309.0105 15.23062621104099
MICROMAS-2A             
1 43131U 18004W   19331.82094426  .00001815  00000-0  76494-4 0  9996
2 43131  97.4733  39.5905 0010453  51.5451 308.6723 15.24593486104216
SPACEBEE-4              
1 43139U 18004AE  19331.67924694  .00002481  00000-0  10039-3 0  9998
2 43139  97.4758  40.1975 0009814  54.2745 305.9404 15.25619292104234
SPACEBEE-3              
1 43140U 18004AF  19331.79258086  .00002860  00000-0  11304-3 0  9995
2 43140  97.4766  40.7194 0009498  53.4103 306.8008 15.26288254104276
SPACEBEE-2              
1 43141U 18004AG  19331.67629527  .00003095  00000-0  12124-3 0  9997
2 43141  97.4778  40.7472 0009456  53.6203 306.5907 15.26517761104268
SPACEBEE-1              
1 43142U 18004AH  19331.61905891  .00003430  00000-0  13304-3 0  9997
2 43142  97.4782  40.8476 0009448  53.7770 306.4341 15.26778059104259
CICERO 7                
1 43143U 18004AJ  19331.83187608  .00001703  00000-0  71764-4 0  9996
2 43143  97.4716  39.8116 0008826  60.9404 299.2716 15.24695901104234
GOMX-4B                 
1 43196U 18015E   19331.88131268  .00000508  00000-0  23751-4 0  9997
2 43196  97.4124  97.3666 0020508  97.2974 263.0595 15.24077395101041
GOMX-4A                 
1 43197U 18015F   19332.06881698  .00000611  00000-0  27906-4 0  9999
2 43197  97.4122  97.5916 0020717  96.4257  13.4527 15.24205299101089
1KUNS-PF                
1 43466U 98067NP  19331.80055841  .00030264  00000-0  21412-3 0  9999
2 43466  51.6347 227.8823 0002454 118.1453 241.9794 15.73717687 88375
